CCSDS_OMM_VERS = 2.0
CREATION_DATE  = 
ORIGINATOR     = 

OBJECT_NAME    = PROGRESS-MS 32
OBJECT_ID      = 2025-204A
CENTER_NAME    = EARTH
REF_FRAME      = TEME
TIME_SYSTEM    = UTC
MEAN_ELEMENT_THEORY = SGP/SGP4

EPOCH          = 2025-12-05T06:04:12.236160
MEAN_MOTION    = 15.49328184
ECCENTRICITY   = .00035858
INCLINATION    = 51.6297
RA_OF_ASC_NODE = 179.5463
ARG_OF_PERICENTER = 206.2517
MEAN_ANOMALY   = 153.8291

EPHEMERIS_TYPE = 0
CLASSIFICATION_TYPE = U
NORAD_CAT_ID   = 65586
ELEMENT_SET_NO = 999
REV_AT_EPOCH   = 27
BSTAR          = .2719745E-3
MEAN_MOTION_DOT = .14736E-3
MEAN_MOTION_DDOT = 0

CCSDS_OMM_VERS = 2.0
CREATION_DATE  = 
ORIGINATOR     = 

OBJECT_NAME    = CYGNUS NG-23
OBJECT_ID      = 2025-208A
CENTER_NAME    = EARTH
REF_FRAME      = TEME
TIME_SYSTEM    = UTC
MEAN_ELEMENT_THEORY = SGP/SGP4

EPOCH          = 2025-12-05T06:04:12.236160
MEAN_MOTION    = 15.49328184
ECCENTRICITY   = .00035858
INCLINATION    = 51.6297
RA_OF_ASC_NODE = 179.5463
ARG_OF_PERICENTER = 206.2517
MEAN_ANOMALY   = 153.8291

EPHEMERIS_TYPE = 0
CLASSIFICATION_TYPE = U
NORAD_CAT_ID   = 65616
ELEMENT_SET_NO = 999
REV_AT_EPOCH   = 22
BSTAR          = .2719745E-3
MEAN_MOTION_DOT = .14736E-3
MEAN_MOTION_DDOT = 0

CCSDS_OMM_VERS = 2.0
CREATION_DATE  = 
ORIGINATOR     = 

OBJECT_NAME    = DRAGONFLY
OBJECT_ID      = 1998-067XH
CENTER_NAME    = EARTH
REF_FRAME      = TEME
TIME_SYSTEM    = UTC
MEAN_ELEMENT_THEORY = SGP/SGP4

EPOCH          = 2025-12-04T18:48:18.796032
MEAN_MOTION    = 15.68817694
ECCENTRICITY   = .00065682
INCLINATION    = 51.6240
RA_OF_ASC_NODE = 176.4076
ARG_OF_PERICENTER = 226.1978
MEAN_ANOMALY   = 133.8476

EPHEMERIS_TYPE = 0
CLASSIFICATION_TYPE = U
NORAD_CAT_ID   = 65729
ELEMENT_SET_NO = 999
REV_AT_EPOCH   = 1191
BSTAR          = .18217218E-2
MEAN_MOTION_DOT = .218353E-2
MEAN_MOTION_DDOT = 0

CCSDS_OMM_VERS = 2.0
CREATION_DATE  = 
ORIGINATOR     = 

OBJECT_NAME    = 1998-067XK
OBJECT_ID      = 1998-067XK
CENTER_NAME    = EARTH
REF_FRAME      = TEME
TIME_SYSTEM    = UTC
MEAN_ELEMENT_THEORY = SGP/SGP4

EPOCH          = 2025-12-05T06:17:44.288160
MEAN_MOTION    = 15.63965392
ECCENTRICITY   = .00057136
INCLINATION    = 51.6276
RA_OF_ASC_NODE = 175.1175
ARG_OF_PERICENTER = 201.1610
MEAN_ANOMALY   = 158.9149

EPHEMERIS_TYPE = 0
CLASSIFICATION_TYPE = U
NORAD_CAT_ID   = 65731
ELEMENT_SET_NO = 999
REV_AT_EPOCH   = 1197
BSTAR          = .12222442E-2
MEAN_MOTION_DOT = .118787E-2
MEAN_MOTION_DDOT = 0

CCSDS_OMM_VERS = 2.0
CREATION_DATE  = 
ORIGINATOR     = 

OBJECT_NAME    = RSP-03
OBJECT_ID      = 1998-067XL
CENTER_NAME    = EARTH
REF_FRAME      = TEME
TIME_SYSTEM    = UTC
MEAN_ELEMENT_THEORY = SGP/SGP4

EPOCH          = 2025-12-05T06:42:43.045632
MEAN_MOTION    = 15.66336847
ECCENTRICITY   = .0006353
INCLINATION    = 51.6250
RA_OF_ASC_NODE = 174.4773
ARG_OF_PERICENTER = 204.5134
MEAN_ANOMALY   = 155.5560

EPHEMERIS_TYPE = 0
CLASSIFICATION_TYPE = U
NORAD_CAT_ID   = 65732
ELEMENT_SET_NO = 999
REV_AT_EPOCH   = 1199
BSTAR          = .14259537E-2
MEAN_MOTION_DOT = .15313E-2
MEAN_MOTION_DDOT = 0

CCSDS_OMM_VERS = 2.0
CREATION_DATE  = 
ORIGINATOR     = 

OBJECT_NAME    = GHS-01
OBJECT_ID      = 1998-067XM
CENTER_NAME    = EARTH
REF_FRAME      = TEME
TIME_SYSTEM    = UTC
MEAN_ELEMENT_THEORY = SGP/SGP4

EPOCH          = 2025-12-04T19:28:30.588096
MEAN_MOTION    = 15.70973864
ECCENTRICITY   = .00069075
INCLINATION    = 51.6270
RA_OF_ASC_NODE = 175.8507
ARG_OF_PERICENTER = 226.7602
MEAN_ANOMALY   = 133.2820

EPHEMERIS_TYPE = 0
CLASSIFICATION_TYPE = U
NORAD_CAT_ID   = 65733
ELEMENT_SET_NO = 999
REV_AT_EPOCH   = 1193
BSTAR          = .20184818E-2
MEAN_MOTION_DOT = .266248E-2
MEAN_MOTION_DDOT = 0

CCSDS_OMM_VERS = 2.0
CREATION_DATE  = 
ORIGINATOR     = 

OBJECT_NAME    = YOTSUBA-KULOVER
OBJECT_ID      = 1998-067XN
CENTER_NAME    = EARTH
REF_FRAME      = TEME
TIME_SYSTEM    = UTC
MEAN_ELEMENT_THEORY = SGP/SGP4

EPOCH          = 2025-12-04T13:41:28.106016
MEAN_MOTION    = 15.58052031
ECCENTRICITY   = .00020554
INCLINATION    = 51.6276
RA_OF_ASC_NODE = 180.9943
ARG_OF_PERICENTER = 178.3938
MEAN_ANOMALY   = 181.7061

EPHEMERIS_TYPE = 0
CLASSIFICATION_TYPE = U
NORAD_CAT_ID   = 65941
ELEMENT_SET_NO = 999
REV_AT_EPOCH   = 858
BSTAR          = .13676634E-2
MEAN_MOTION_DOT = .105594E-2
MEAN_MOTION_DDOT = 0

CCSDS_OMM_VERS = 2.0
CREATION_DATE  = 
ORIGINATOR     = 

OBJECT_NAME    = BOTAN
OBJECT_ID      = 1998-067XP
CENTER_NAME    = EARTH
REF_FRAME      = TEME
TIME_SYSTEM    = UTC
MEAN_ELEMENT_THEORY = SGP/SGP4

EPOCH          = 2025-12-04T15:44:42.289728
MEAN_MOTION    = 15.60784931
ECCENTRICITY   = .00042645
INCLINATION    = 51.6268
RA_OF_ASC_NODE = 180.0664
ARG_OF_PERICENTER = 180.2775
MEAN_ANOMALY   = 179.8217

EPHEMERIS_TYPE = 0
CLASSIFICATION_TYPE = U
NORAD_CAT_ID   = 65942
ELEMENT_SET_NO = 999
REV_AT_EPOCH   = 860
BSTAR          = .17279415E-2
MEAN_MOTION_DOT = .149041E-2
MEAN_MOTION_DDOT = 0

CCSDS_OMM_VERS = 2.0
CREATION_DATE  = 
ORIGINATOR     = 

OBJECT_NAME    = E-KAGAKU-1
OBJECT_ID      = 1998-067XQ
CENTER_NAME    = EARTH
REF_FRAME      = TEME
TIME_SYSTEM    = UTC
MEAN_ELEMENT_THEORY = SGP/SGP4

EPOCH          = 2025-12-04T19:50:44.475360
MEAN_MOTION    = 15.58070378
ECCENTRICITY   = .00035721
INCLINATION    = 51.6297
RA_OF_ASC_NODE = 179.7082
ARG_OF_PERICENTER = 159.4273
MEAN_ANOMALY   = 200.6864

EPHEMERIS_TYPE = 0
CLASSIFICATION_TYPE = U
NORAD_CAT_ID   = 65943
ELEMENT_SET_NO = 999
REV_AT_EPOCH   = 862
BSTAR          = .13396072E-2
MEAN_MOTION_DOT = .103476E-2
MEAN_MOTION_DDOT = 0

CCSDS_OMM_VERS = 2.0
CREATION_DATE  = 
ORIGINATOR     = 

OBJECT_NAME    = HRC MONOBLOCK CAMERA
OBJECT_ID      = 1998-067XR
CENTER_NAME    = EARTH
REF_FRAME      = TEME
TIME_SYSTEM    = UTC
MEAN_ELEMENT_THEORY = SGP/SGP4

EPOCH          = 2025-12-05T06:06:43.576992
MEAN_MOTION    = 15.53416514
ECCENTRICITY   = .00042499
INCLINATION    = 51.6284
RA_OF_ASC_NODE = 178.8082
ARG_OF_PERICENTER = 154.3849
MEAN_ANOMALY   = 205.7352

EPHEMERIS_TYPE = 0
CLASSIFICATION_TYPE = U
NORAD_CAT_ID   = 66052
ELEMENT_SET_NO = 999
REV_AT_EPOCH   = 767
BSTAR          = .75336119E-3
MEAN_MOTION_DOT = .48428E-3
MEAN_MOTION_DDOT = 0

CCSDS_OMM_VERS = 2.0
CREATION_DATE  = 
ORIGINATOR     = 

OBJECT_NAME    = HTV-X1
OBJECT_ID      = 2025-241A
CENTER_NAME    = EARTH
REF_FRAME      = TEME
TIME_SYSTEM    = UTC
MEAN_ELEMENT_THEORY = SGP/SGP4

EPOCH          = 2025-12-05T06:04:12.236160
MEAN_MOTION    = 15.49328184
ECCENTRICITY   = .00035858
INCLINATION    = 51.6297
RA_OF_ASC_NODE = 179.5463
ARG_OF_PERICENTER = 206.2517
MEAN_ANOMALY   = 153.8291

EPHEMERIS_TYPE = 0
CLASSIFICATION_TYPE = U
NORAD_CAT_ID   = 66174
ELEMENT_SET_NO = 999
REV_AT_EPOCH   = 51
BSTAR          = .2719745E-3
MEAN_MOTION_DOT = .14736E-3
MEAN_MOTION_DDOT = 0

